{"type": "FeatureCollection", "features": [ {"type": "Feature", "properties": {"norad_id": 36402, "name": "COSMOS 2460 (732)", "group": "gnss", "lat": 65.1411950421328, "lon": 61.72712650772118, "alt_km": 19129.774144943545, "timestamp": "2025-12-02T15:49:07.430616+00:00", "meta": {"OBJECT_NAME": "COSMOS 2460 (732)", "OBJECT_ID": "2010-007C", "EPOCH": "2025-12-01T05:49:09.827040", "MEAN_MOTION": 2.13106053, "ECCENTRICITY": 0.00028009, "INCLINATION": 65.536, "RA_OF_ASC_NODE": 321.162, "ARG_OF_PERICENTER": 269.9918, "MEAN_ANOMALY": 177.6167, "EPHEMERIS_TYPE": 0, "CLASSIFICATION_TYPE": "U", "NORAD_CAT_ID": 36402, "ELEMENT_SET_NO": 999, "REV_AT_EPOCH": 12251, "BSTAR": 0, "MEAN_MOTION_DOT": -2.6e-07, "MEAN_MOTION_DDOT": 0}, "tle": {"line1": "1 36402U 10007C   25335.24247485 -.00000026  00000+0  00000+0 0  9994", "line2": "2 36402  65.5360 321.1620 0002800 269.9918 177.6167  2.13106053122518"}}, "geometry": {"type": "Point", "coordinates": [61.72712650772118, 65.1411950421328]}}, {"type": "Feature", "properties": {"norad_id": 36585, "name": "GPS BIIF-1  (PRN 25)", "group": "gnss", "lat": 51.18695952766323, "lon": -26.750148683985525, "alt_km": 19925.087954755145, "timestamp": "2025-12-02T15:49:07.430628+00:00", "meta": {"OBJECT_NAME": "GPS BIIF-1  (PRN 25)", "OBJECT_ID": "2010-022A", "EPOCH": "2025-12-02T06:20:52.766304", "MEAN_MOTION": 2.00552564, "ECCENTRICITY": 0.0125665, "INCLINATION": 54.3023, "RA_OF_ASC_NODE": 216.4964, "ARG_OF_PERICENTER": 64.9581, "MEAN_ANOMALY": 115.6293, "EPHEMERIS_TYPE": 0, "CLASSIFICATION_TYPE": "U", "NORAD_CAT_ID": 36585, "ELEMENT_SET_NO": 999, "REV_AT_EPOCH": 11364, "BSTAR": 0, "MEAN_MOTION_DOT": 6.7e-07, "MEAN_MOTION_DDOT": 0}, "tle": {"line1": "1 36585U 10022A   25336.26449961  .00000067  00000+0  00000+0 0  9993", "line2": "2 36585  54.3023 216.4964 0125665  64.9581 115.6293  2.00552564113647"}}, "geometry": {"type": "Point", "coordinates": [-26.750148683985525, 51.18695952766323]}}, {"type": "Feature", "properties": {"norad_id": 36828, "name": "BEIDOU-2 IGSO-1 (C06)", "group": "gnss", "lat": -50.628420459854794, "lon": 46.151114843320165, "alt_km": 35615.75561307416, "timestamp": "2025-12-02T15:49:07.430640+00:00", "meta": {"OBJECT_NAME": "BEIDOU-2 IGSO-1 (C06)", "OBJECT_ID": "2010-036A", "EPOCH": "2025-12-01T10:54:26.819712", "MEAN_MOTION": 1.00279202, "ECCENTRICITY": 0.00512823, "INCLINATION": 54.2832, "RA_OF_ASC_NODE": 164.751, "ARG_OF_PERICENTER": 215.7518, "MEAN_ANOMALY": 321.3962, "EPHEMERIS_TYPE": 0, "CLASSIFICATION_TYPE": "U", "NORAD_CAT_ID": 36828, "ELEMENT_SET_NO": 999, "REV_AT_EPOCH": 5611, "BSTAR": 0, "MEAN_MOTION_DOT": -1.7e-07, "MEAN_MOTION_DDOT": 0}, "tle": {"line1": "1 36828U 10036A   25335.45447708 -.00000017  00000+0  00000+0 0  9991", "line2": "2 36828  54.2832 164.7510 0051282 215.7518 321.3962  1.00279202 56116"}}, "geometry": {"type": "Point", "coordinates": [46.151114843320165, -50.628420459854794]}}, {"type": "Feature", "properties": {"norad_id": 37210, "name": "BEIDOU-2 G4 (C04)", "group": "gnss", "lat": 2.0014924894146566, "lon": 108.98080304711262, "alt_km": 35825.19879998719, "timestamp": "2025-12-02T15:49:07.430653+00:00", "meta": {"OBJECT_NAME": "BEIDOU-2 G4 (C04)", "OBJECT_ID": "2010-057A", "EPOCH": "2025-12-02T05:59:09.847392", "MEAN_MOTION": 1.00271415, "ECCENTRICITY": 0.00108408, "INCLINATION": 3.1564, "RA_OF_ASC_NODE": 69.9628, "ARG_OF_PERICENTER": 187.9566, "MEAN_ANOMALY": 63.2993, "EPHEMERIS_TYPE": 0, "CLASSIFICATION_TYPE": "U", "NORAD_CAT_ID": 37210, "ELEMENT_SET_NO": 999, "REV_AT_EPOCH": 5531, "BSTAR": 0, "MEAN_MOTION_DOT": -9.1e-07, "MEAN_MOTION_DDOT": 0}, "tle": {"line1": "1 37210U 10057A   25336.24941953 -.00000091  00000+0  00000+0 0  9991", "line2": "2 37210   3.1564  69.9628 0010840 187.9566  63.2993  1.00271415 55316"}}, "geometry": {"type": "Point", "coordinates": [108.98080304711262, 2.0014924894146566]}}, {"type": "Feature", "properties": {"norad_id": 37256, "name": "BEIDOU-2 IGSO-2 (C07)", "group": "gnss", "lat": 27.593634314434023, "lon": 66.09691151861902, "alt_km": 35723.240564589556, "timestamp": "2025-12-02T15:49:07.430666+00:00", "meta": {"OBJECT_NAME": "BEIDOU-2 IGSO-2 (C07)", "OBJECT_ID": "2010-068A", "EPOCH": "2025-11-30T14:15:56.539296", "MEAN_MOTION": 1.00290004, "ECCENTRICITY": 0.0049401, "INCLINATION": 47.9109, "RA_OF_ASC_NODE": 274.301, "ARG_OF_PERICENTER": 216.3834, "MEAN_ANOMALY": 260.0417, "EPHEMERIS_TYPE": 0, "CLASSIFICATION_TYPE": "U", "NORAD_CAT_ID": 37256, "ELEMENT_SET_NO": 999, "REV_AT_EPOCH": 5480, "BSTAR": 0, "MEAN_MOTION_DOT": -2.25e-06, "MEAN_MOTION_DDOT": 0}, "tle": {"line1": "1 37256U 10068A   25334.59440439 -.00000225  00000+0  00000+0 0  9991", "line2": "2 37256  47.9109 274.3010 0049401 216.3834 260.0417  1.00290004 54800"}}, "geometry": {"type": "Point", "coordinates": [66.09691151861902, 27.593634314434023]}}, {"type": "Feature", "properties": {"norad_id": 37384, "name": "BEIDOU-2 IGSO-3 (C08)", "group": "gnss", "lat": 12.898909737933991, "lon": 48.99035193169731, "alt_km": 35934.00864327214, "timestamp": "2025-12-02T15:49:07.430678+00:00", "meta": {"OBJECT_NAME": "BEIDOU-2 IGSO-3 (C08)", "OBJECT_ID": "2011-013A", "EPOCH": "2025-11-29T21:04:05.094336", "MEAN_MOTION": 1.00273417, "ECCENTRICITY": 0.00356655, "INCLINATION": 62.1255, "RA_OF_ASC_NODE": 42.0418, "ARG_OF_PERICENTER": 186.0158, "MEAN_ANOMALY": 264.7363, "EPHEMERIS_TYPE": 0, "CLASSIFICATION_TYPE": "U", "NORAD_CAT_ID": 37384, "ELEMENT_SET_NO": 999, "REV_AT_EPOCH": 5366, "BSTAR": 0, "MEAN_MOTION_DOT": -1.94e-06, "MEAN_MOTION_DDOT": 0}, "tle": {"line1": "1 37384U 11013A   25333.87783674 -.00000194  00000+0  00000+0 0  9990", "line2": "2 37384  62.1255  42.0418 0035665 186.0158 264.7363  1.00273417 53667"}}, "geometry": {"type": "Point", "coordinates": [48.99035193169731, 12.898909737933991]}}, {"type": "Feature", "properties": {"norad_id": 37605, "name": "GSAT-8 (GAGAN/PRN 127)", "group": "gnss", "lat": -1.5783141060271324, "lon": 4.198320587531788, "alt_km": 35794.65703676952, "timestamp": "2025-12-02T15:49:07.430691+00:00", "meta": {"OBJECT_NAME": "GSAT-8 (GAGAN/PRN 127)", "OBJECT_ID": "2011-022A", "EPOCH": "2025-12-02T03:46:25.790016", "MEAN_MOTION": 1.00272305, "ECCENTRICITY": 0.00089384, "INCLINATION": 1.6199, "RA_OF_ASC_NODE": 84.307, "ARG_OF_PERICENTER": 176.8932, "MEAN_ANOMALY": 281.75, "EPHEMERIS_TYPE": 0, "CLASSIFICATION_TYPE": "U", "NORAD_CAT_ID": 37605, "ELEMENT_SET_NO": 999, "REV_AT_EPOCH": 5124, "BSTAR": 0, "MEAN_MOTION_DOT": 1.05e-06, "MEAN_MOTION_DDOT": 0}, "tle": {"line1": "1 37605U 11022A   25336.15724294  .00000105  00000+0  00000+0 0  9994", "line2": "2 37605   1.6199  84.3070 0008938 176.8932 281.7500  1.00272305 51240"}}, "geometry": {"type": "Point", "coordinates": [4.198320587531788, -1.5783141060271324]}}, {"type": "Feature", "properties": {"norad_id": 37763, "name": "BEIDOU-2 IGSO-4 (C09)", "group": "gnss", "lat": -42.31255716679503, "lon": 27.88486650385824, "alt_km": 35162.62768083723, "timestamp": "2025-12-02T15:49:07.430704+00:00", "meta": {"OBJECT_NAME": "BEIDOU-2 IGSO-4 (C09)", "OBJECT_ID": "2011-038A", "EPOCH": "2025-11-28T12:37:32.473920", "MEAN_MOTION": 1.00284857, "ECCENTRICITY": 0.01486323, "INCLINATION": 54.5801, "RA_OF_ASC_NODE": 167.4746, "ARG_OF_PERICENTER": 230.1967, "MEAN_ANOMALY": 313.2933, "EPHEMERIS_TYPE": 0, "CLASSIFICATION_TYPE": "U", "NORAD_CAT_ID": 37763, "ELEMENT_SET_NO": 999, "REV_AT_EPOCH": 5263, "BSTAR": 0, "MEAN_MOTION_DOT": 8.5e-07, "MEAN_MOTION_DDOT": 0}, "tle": {"line1": "1 37763U 11038A   25332.52607030  .00000085  00000+0  00000+0 0  9998", "line2": "2 37763  54.5801 167.4746 0148632 230.1967 313.2933  1.00284857 52633"}}, "geometry": {"type": "Point", "coordinates": [27.88486650385824, -42.31255716679503]}}, {"type": "Feature", "properties": {"norad_id": 37846, "name": "GSAT0101 (GALILEO-PFM)", "group": "gnss", "lat": -12.026845216125135, "lon": 175.04461733492892, "alt_km": 23226.89222333563, "timestamp": "2025-12-02T15:49:07.430718+00:00", "meta": {"OBJECT_NAME": "GSAT0101 (GALILEO-PFM)", "OBJECT_ID": "2011-060A", "EPOCH": "2025-11-24T03:07:29.832960", "MEAN_MOTION": 1.70475782, "ECCENTRICITY": 0.00025776, "INCLINATION": 57.0574, "RA_OF_ASC_NODE": 347.3256, "ARG_OF_PERICENTER": 308.2281, "MEAN_ANOMALY": 51.7929, "EPHEMERIS_TYPE": 0, "CLASSIFICATION_TYPE": "U", "NORAD_CAT_ID": 37846, "ELEMENT_SET_NO": 999, "REV_AT_EPOCH": 8762, "BSTAR": 0, "MEAN_MOTION_DOT": -6.3e-07, "MEAN_MOTION_DDOT": 0}, "tle": {"line1": "1 37846U 11060A   25328.13020640 -.00000063  00000+0  00000+0 0  9990", "line2": "2 37846  57.0574 347.3256 0002577 308.2281  51.7929  1.70475782 87620"}}, "geometry": {"type": "Point", "coordinates": [175.04461733492892, -12.026845216125135]}}, {"type": "Feature", "properties": {"norad_id": 37847, "name": "GSAT0102 (GALILEO-FM2)", "group": "gnss", "lat": -46.48055945472048, "lon": -149.82243697453492, "alt_km": 23221.551108423242, "timestamp": "2025-12-02T15:49:07.430730+00:00", "meta": {"OBJECT_NAME": "GSAT0102 (GALILEO-FM2)", "OBJECT_ID": "2011-060B", "EPOCH": "2025-11-29T14:59:45.115008", "MEAN_MOTION": 1.70475771, "ECCENTRICITY": 0.00046767, "INCLINATION": 57.0566, "RA_OF_ASC_NODE": 347.1768, "ARG_OF_PERICENTER": 305.2654, "MEAN_ANOMALY": 232.3795, "EPHEMERIS_TYPE": 0, "CLASSIFICATION_TYPE": "U", "NORAD_CAT_ID": 37847, "ELEMENT_SET_NO": 999, "REV_AT_EPOCH": 8772, "BSTAR": 0, "MEAN_MOTION_DOT": -5.6e-07, "MEAN_MOTION_DDOT": 0}, "tle": {"line1": "1 37847U 11060B   25333.62482772 -.00000056  00000+0  00000+0 0  9991", "line2": "2 37847  57.0566 347.1768 0004676 305.2654 232.3795  1.70475771 87728"}}, "geometry": {"type": "Point", "coordinates": [-149.82243697453492, -46.48055945472048]}}]}